$$SOE
2460728.500000000, A.D. 2025-Feb-22 00:00:00.0000, -3.959627246216660E+08, 4.399575475928025E+08, -1.891597214571458E+07,
2460735.500000000, A.D. 2025-Mar-01 00:00:00.0000, -4.039681854790270E+08, 4.356720017574927E+08, -1.868503168990785E+07,
2460742.500000000, A.D. 2025-Mar-08 00:00:00.0000, -4.118801743908801E+08, 4.312857448736529E+08, -1.844976956815118E+07,
2460749.500000000, A.D. 2025-Mar-15 00:00:00.0000, -4.196979183642176E+08, 4.268009010427204E+08, -1.821028794070110E+07,
2460756.500000000, A.D. 2025-Mar-22 00:00:00.0000, -4.274206878075494E+08, 4.222195762315365E+08, -1.796668760898280E+07,
2460763.500000000, A.D. 2025-Mar-29 00:00:00.0000, -4.350477960090647E+08, 4.175438561182432E+08, -1.771906807077780E+07,
2460770.500000000, A.D. 2025-Apr-05 00:00:00.0000, -4.425785969537857E+08, 4.127758048659048E+08, -1.746752765972108E+07,
2460777.500000000, A.D. 2025-Apr-12 00:00:00.0000, -4.500124834063322E+08, 4.079174649260403E+08, -1.721216358425021E+07,
2460784.500000000, A.D. 2025-Apr-19 00:00:00.0000, -4.573488854463802E+08, 4.029708569890843E+08, -1.695307192108755E+07,
2460791.500000000, A.D. 2025-Apr-26 00:00:00.0000, -4.645872691846730E+08, 3.979379798767416E+08, -1.669034760489100E+07,
2460798.500000000, A.D. 2025-May-03 00:00:00.0000, -4.717271355454694E+08, 3.928208103933129E+08, -1.642408442300798E+07,
2460805.500000000, A.D. 2025-May-10 00:00:00.0000, -4.787680190864677E+08, 3.876213031426355E+08, -1.615437501729867E+07,
2460812.500000000, A.D. 2025-May-17 00:00:00.0000, -4.857094868191038E+08, 3.823413902676830E+08, -1.588131089976896E+07,
2460819.500000000, A.D. 2025-May-24 00:00:00.0000, -4.925511368549002E+08, 3.769829810565148E+08, -1.560498250239679E+07,
2460826.500000000, A.D. 2025-May-31 00:00:00.0000, -4.992925964596439E+08, 3.715479617237423E+08, -1.532547927400719E+07,
2460833.500000000, A.D. 2025-Jun-07 00:00:00.0000, -5.059335199160336E+08, 3.660381965705632E+08, -1.504288968889973E+07,
2460840.500000000, A.D. 2025-Jun-14 00:00:00.0000, -5.124735885592988E+08, 3.604555298551739E+08, -1.475730100482605E+07,
2460847.500000000, A.D. 2025-Jun-21 00:00:00.0000, -5.189125117684637E+08, 3.548017851012105E+08, -1.446879914918885E+07,
2460854.500000000, A.D. 2025-Jun-28 00:00:00.0000, -5.252500257838200E+08, 3.490787636072256E+08, -1.417746887596539E+07,
2460861.500000000, A.D. 2025-Jul-05 00:00:00.0000, -5.314858918668636E+08, 3.432882443118225E+08, -1.388339387786712E+07,
2460868.500000000, A.D. 2025-Jul-12 00:00:00.0000, -5.376198949936197E+08, 3.374319842080293E+08, -1.358665681025991E+07,
2460875.500000000, A.D. 2025-Jul-19 00:00:00.0000, -5.436518428913015E+08, 3.315117187309420E+08, -1.328733929112779E+07,
2460882.500000000, A.D. 2025-Jul-26 00:00:00.0000, -5.495815652076741E+08, 3.255291620610368E+08, -1.298552190080735E+07,
2460889.500000000, A.D. 2025-Aug-02 00:00:00.0000, -5.554089127470685E+08, 3.194860073637598E+08, -1.268128418554908E+07,
2460896.500000000, A.D. 2025-Aug-09 00:00:00.0000, -5.611337567490047E+08, 3.133839269498478E+08, -1.237470466805269E+07,
2460903.500000000, A.D. 2025-Aug-16 00:00:00.0000, -5.667559881318650E+08, 3.072245722923636E+08, -1.206586087697816E+07,
2460910.500000000, A.D. 2025-Aug-23 00:00:00.0000, -5.722755164083600E+08, 3.010095739161935E+08, -1.175482942066945E+07,
2460917.500000000, A.D. 2025-Aug-30 00:00:00.0000, -5.776922679432269E+08, 2.947405418732745E+08, -1.144168607663026E+07,
2460924.500000000, A.D. 2025-Sep-06 00:00:00.0000, -5.830061849709057E+08, 2.884190678030538E+08, -1.112650568466873E+07,
2460931.500000000, A.D. 2025-Sep-13 00:00:00.0000, -5.882172270438051E+08, 2.820467260949169E+08, -1.080936189314923E+07,
2460938.500000000, A.D. 2025-Sep-20 00:00:00.0000, -5.933253716371979E+08, 2.756250725079780E+08, -1.049032719266936E+07,
2460945.500000000, A.D. 2025-Sep-27 00:00:00.0000, -5.983306128510214E+08, 2.691556433590702E+08, -1.016947307964973E+07,
2460952.500000000, A.D. 2025-Oct-04 00:00:00.0000, -6.032329602247467E+08, 2.626399558174246E+08, -9.846870120601401E+06,
2460959.500000000, A.D. 2025-Oct-11 00:00:00.0000, -6.080324380385535E+08, 2.560795083627926E+08, -9.522587959767640E+06,
2460966.500000000, A.D. 2025-Oct-18 00:00:00.0000, -6.127290848163426E+08, 2.494757811324432E+08, -9.196695318508610E+06,
2460973.500000000, A.D. 2025-Oct-25 00:00:00.0000, -6.173229528900913E+08, 2.428302361677441E+08, -8.869259998301715E+06,
2460980.500000000, A.D. 2025-Nov-01 00:00:00.0000, -6.218141079852951E+08, 2.361443175754220E+08, -8.540348889753670E+06,
2460987.500000000, A.D. 2025-Nov-08 00:00:00.0000, -6.262026287923952E+08, 2.294194515717518E+08, -8.210027993482724E+06,
2460994.500000000, A.D. 2025-Nov-15 00:00:00.0000, -6.304886063760309E+08, 2.226570463509320E+08, -7.878362471403524E+06,
2461001.500000000, A.D. 2025-Nov-22 00:00:00.0000, -6.346721430192108E+08, 2.158584919977410E+08, -7.545416747578427E+06,
2461008.500000000, A.D. 2025-Nov-29 00:00:00.0000, -6.387533506553987E+08, 2.090251615795454E+08, -7.211254552050874E+06,
2461015.500000000, A.D. 2025-Dec-06 00:00:00.0000, -6.427323511658595E+08, 2.021584132817857E+08, -6.875938710117668E+06,
2461022.500000000, A.D. 2025-Dec-13 00:00:00.0000, -6.466092781085455E+08, 1.952595902170462E+08, -6.539530992436655E+06,
2461029.500000000, A.D. 2025-Dec-20 00:00:00.0000, -6.503842763845218E+08, 1.883300189312731E+08, -6.202092262817554E+06,
2461036.500000000, A.D. 2025-Dec-27 00:00:00.0000, -6.540575009147356E+08, 1.813710091983763E+08, -5.863682613441288E+06,
2461043.500000000, A.D. 2026-Jan-03 00:00:00.0000, -6.576291157859473E+08, 1.743838544876826E+08, -5.524361403996021E+06,
2461050.500000000, A.D. 2026-Jan-10 00:00:00.0000, -6.610992937558061E+08, 1.673698324258122E+08, -5.184187270258226E+06,
2461057.500000000, A.D. 2026-Jan-17 00:00:00.0000, -6.644682158840787E+08, 1.603302051620890E+08, -4.843218130857050E+06,
2461064.500000000, A.D. 2026-Jan-24 00:00:00.0000, -6.677360712115989E+08, 1.532662196608547E+08, -4.501511197404645E+06,
2461071.500000000, A.D. 2026-Jan-31 00:00:00.0000, -6.709030564629934E+08, 1.461791079140143E+08, -4.159122990630202E+06,
2461078.500000000, A.D. 2026-Feb-07 00:00:00.0000, -6.739693757112162E+08, 1.390700870172192E+08, -3.816109372720182E+06,
2461085.500000000, A.D. 2026-Feb-14 00:00:00.0000, -6.769352397503538E+08, 1.319403590951354E+08, -3.472525620206632E+06,
2461092.500000000, A.D. 2026-Feb-21 00:00:00.0000, -6.798008647886206E+08, 1.247911116534577E+08, -3.128426525674284E+06,
2461099.500000000, A.D. 2026-Feb-28 00:00:00.0000, -6.825664715458978E+08, 1.176235195115170E+08, -2.783866334428348E+06,
2461106.500000000, A.D. 2026-Mar-07 00:00:00.0000, -6.852322868141893E+08, 1.104387463656555E+08, -2.438898486615129E+06,
2461113.500000000, A.D. 2026-Mar-14 00:00:00.0000, -6.877985447051300E+08, 1.032379436508911E+08, -2.093575609942980E+06,
2461120.500000000, A.D. 2026-Mar-21 00:00:00.0000, -6.902654858008931E+08, 9.602224959894283E+07, -1.747949689548664E+06,
2461127.500000000, A.D. 2026-Mar-28 00:00:00.0000, -6.926333562172407E+08, 8.879278952092014E+07, -1.402072146502137E+06,
2461134.500000000, A.D. 2026-Apr-04 00:00:00.0000, -6.949024071823062E+08, 8.155067634869716E+07, -1.055993848361354E+06,
2461141.500000000, A.D. 2026-Apr-11 00:00:00.0000, -6.970728948571376E+08, 7.429701107490651E+07, -7.097651061496362E+05,
2461148.500000000, A.D. 2026-Apr-18 00:00:00.0000, -6.991450802384762E+08, 6.703288308482213E+07, -3.634356727134101E+05,
2461155.500000000, A.D. 2026-Apr-25 00:00:00.0000, -7.011192290975286E+08, 5.975937039480238E+07, -1.705474525500461E+04,
2461162.500000000, A.D. 2026-May-02 00:00:00.0000, -7.029956119235203E+08, 5.247753976765569E+07, 3.293290229172520E+05,
2461169.500000000, A.D. 2026-May-09 00:00:00.0000, -7.047745037468762E+08, 4.518844663872796E+07, 6.756674847489428E+05,
2461176.500000000, A.D. 2026-May-16 00:00:00.0000, -7.064561834634823E+08, 3.789313499112422E+07, 1.021912912679255E+06,
2461183.500000000, A.D. 2026-May-23 00:00:00.0000, -7.080409326075921E+08, 3.059263820251547E+07, 1.368017941634871E+06,
2461190.500000000, A.D. 2026-May-30 00:00:00.0000, -7.095290356513761E+08, 2.328798118309187E+07, 1.713935758523332E+06,
2461197.500000000, A.D. 2026-Jun-06 00:00:00.0000, -7.109207821482712E+08, 1.598018053118642E+07, 2.059620299715921E+06,
2461204.500000000, A.D. 2026-Jun-13 00:00:00.0000, -7.122164670538368E+08, 8.670242905853106E+06, 2.405026136430138E+06,
2461211.500000000, A.D. 2026-Jun-20 00:00:00.0000, -7.134163897242768E+08, 1.359164542654249E+06, 2.750108332940930E+06,
2461218.500000000, A.D. 2026-Jun-27 00:00:00.0000, -7.145208532903508E+08, -5.952068427479657E+06, 3.094822405375024E+06,
2461225.500000000, A.D. 2026-Jul-04 00:00:00.0000, -7.155301644066342E+08, -1.326247963149229E+07, 3.439124317473969E+06,
2461232.500000000, A.D. 2026-Jul-11 00:00:00.0000, -7.164446331222335E+08, -2.057110221157079E+07, 3.782970478961560E+06,
2461239.500000000, A.D. 2026-Jul-18 00:00:00.0000, -7.172645727803210E+08, -2.787697866089309E+07, 4.126317739838606E+06,
2461246.500000000, A.D. 2026-Jul-25 00:00:00.0000, -7.179902999221005E+08, -3.517916073492317E+07, 4.469123378347732E+06,
2461253.500000000, A.D. 2026-Aug-01 00:00:00.0000, -7.186221341471095E+08, -4.247670948619544E+07, 4.811345074067876E+06,
2461260.500000000, A.D. 2026-Aug-08 00:00:00.0000, -7.191603977149025E+08, -4.976869545824470E+07, 5.152940843355371E+06,
2461267.500000000, A.D. 2026-Aug-15 00:00:00.0000, -7.196054144729100E+08, -5.705419858805005E+07, 5.493868935780291E+06,
2461274.500000000, A.D. 2026-Aug-22 00:00:00.0000, -7.199575088712987E+08, -6.433230659551433E+07, 5.834087861115381E+06,
2461281.500000000, A.D. 2026-Aug-29 00:00:00.0000, -7.202170073538754E+08, -7.160211323264961E+07, 6.173556644603219E+06,
2461288.500000000, A.D. 2026-Sep-05 00:00:00.0000, -7.203842399916537E+08, -7.886271926043008E+07, 6.512234880404644E+06,
$$EOE